{
    "links": {
        "self": "http://www.neowsapp.com/rest/v1/neo/3670703?api_key=iIulBulltgU6a56xZRHN4H3l9WmuAYTsLGpBGhQ2"
    },
    "id": "3670703",
    "neo_reference_id": "3670703",
    "name": "(2014 JW24)",
    "designation": "2014 JW24",
    "nasa_jpl_url": "http://ssd.jpl.nasa.gov/sbdb.cgi?sstr=3670703",
    "absolute_magnitude_h": 23.9,
    "estimated_diameter": {
        "kilometers": {
            "estimated_diameter_min": 0.04411182,
            "estimated_diameter_max": 0.0986370281
        },
        "meters": {
            "estimated_diameter_min": 44.1118199997,
            "estimated_diameter_max": 98.6370281305
        },
        "miles": {
            "estimated_diameter_min": 0.0274098057,
            "estimated_diameter_max": 0.0612901888
        },
        "feet": {
            "estimated_diameter_min": 144.7238235278,
            "estimated_diameter_max": 323.6123073718
        }
    },
    "is_potentially_hazardous_asteroid": false,
    "close_approach_data": [
        {
            "close_approach_date": "1928-05-02",
            "close_approach_date_full": "1928-May-02 23:48",
            "epoch_date_close_approach": -1314835920000,
            "relative_velocity": {
                "kilometers_per_second": "16.5184431487",
                "kilometers_per_hour": "59466.3953354122",
                "miles_per_hour": "36950.1054793843"
            },
            "miss_distance": {
                "astronomical": "0.3274679039",
                "lunar": "127.3850146171",
                "kilometers": "48988500.916804693",
                "miles": "30440042.9461550434"
            },
            "orbiting_body": "Earth"
        },
        {
            "close_approach_date": "1940-05-23",
            "close_approach_date_full": "1940-May-23 06:19",
            "epoch_date_close_approach": -934393260000,
            "relative_velocity": {
                "kilometers_per_second": "8.929437264",
                "kilometers_per_hour": "32145.9741504896",
                "miles_per_hour": "19974.2582158973"
            },
            "miss_distance": {
                "astronomical": "0.03773508",
                "lunar": "14.67894612",
                "kilometers": "5645087.5922796",
                "miles": "3507694.77587448"
            },
            "orbiting_body": "Earth"
        },
        {
            "close_approach_date": "2002-05-05",
            "close_approach_date_full": "2002-May-05 02:23",
            "epoch_date_close_approach": 1020565380000,
            "relative_velocity": {
                "kilometers_per_second": "15.9752715855",
                "kilometers_per_hour": "57510.9777076769",
                "miles_per_hour": "35735.0850095284"
            },
            "miss_distance": {
                "astronomical": "0.3050516341",
                "lunar": "118.6650856649",
                "kilometers": "45635074.701379367",
                "miles": "28356320.5193825846"
            },
            "orbiting_body": "Earth"
        },
        {
            "close_approach_date": "2014-05-25",
            "close_approach_date_full": "2014-May-25 12:34",
            "epoch_date_close_approach": 1401021240000,
            "relative_velocity": {
                "kilometers_per_second": "8.6476499346",
                "kilometers_per_hour": "31131.5397645899",
                "miles_per_hour": "19343.9281387253"
            },
            "miss_distance": {
                "astronomical": "0.0404974513",
                "lunar": "15.7535085557",
                "kilometers": "6058332.454908731",
                "miles": "3764473.2265372478"
            },
            "orbiting_body": "Earth"
        }
    ],
    "orbital_data": {
        "orbit_id": "13",
        "orbit_determination_date": "2017-04-06 08:40:37",
        "first_observation_date": "2014-05-06",
        "last_observation_date": "2014-05-31",
        "data_arc_in_days": 25,
        "observations_used": 69,
        "orbit_uncertainty": "7",
        "minimum_orbit_intersection": ".0387827",
        "jupiter_tisserand_invariant": "4.600",
        "epoch_osculation": "2459000.5",
        "eccentricity": ".3067200032699811",
        "semi_major_axis": "1.436659553713517",
        "inclination": "12.20148010244346",
        "ascending_node_longitude": "56.84924161323976",
        "orbital_period": "628.9689765829396",
        "perihelion_distance": ".9960073307006575",
        "perihelion_argument": "222.512367509089",
        "aphelion_distance": "1.877311776726376",
        "perihelion_time": "2458722.436520434486",
        "mean_anomaly": "159.1538793970785",
        "mean_motion": ".5723652730152237",
        "equinox": "J2000",
        "orbit_class": {
            "orbit_class_type": "APO",
            "orbit_class_description": "Near-Earth asteroid orbits which cross the Earth’s orbit similar to that of 1862 Apollo",
            "orbit_class_range": "a (semi-major axis) > 1.0 AU; q (perihelion) < 1.017 AU"
        }
    },
    "is_sentry_object": false
}